[{"OBJECT_NAME":"STARLINK-34031","OBJECT_ID":"2025-095Y","EPOCH":"2026-03-09T08:11:45.127392","MEAN_MOTION":15.27590409,"ECCENTRICITY":0.00025574,"INCLINATION":43.0013,"RA_OF_ASC_NODE":178.2621,"ARG_OF_PERICENTER":285.2493,"MEAN_ANOMALY":74.8075,"EPHEMERIS_TYPE":0,"CLASSIFICATION_TYPE":"U","NORAD_CAT_ID":63912,"ELEMENT_SET_NO":999,"REV_AT_EPOCH":4772,"BSTAR":0.0013314427,"MEAN_MOTION_DOT":0.00036571,"MEAN_MOTION_DDOT":0},{"OBJECT_NAME":"KUIPER-00209","OBJECT_ID":"2026-030N","EPOCH":"2026-03-09T14:49:43.575744","MEAN_MOTION":15.3016195,"ECCENTRICITY":0.0012191,"INCLINATION":51.8838,"RA_OF_ASC_NODE":220.0775,"ARG_OF_PERICENTER":59.1967,"MEAN_ANOMALY":301.0215,"EPHEMERIS_TYPE":0,"CLASSIFICATION_TYPE":"U","NORAD_CAT_ID":67776,"ELEMENT_SET_NO":999,"REV_AT_EPOCH":507,"BSTAR":0.0011963,"MEAN_MOTION_DOT":0.00035298,"MEAN_MOTION_DDOT":0}]
